COSMOS 1953             
1 19210U 88050A   16098.14112360  .00001517  00000-0  10572-3 0  9998
2 19210  82.5152  95.9647 0012463 312.3255  47.6915 15.04675869512253
SL-8 R/B                
1 19257U 88053B   16097.13241845  .00000139  00000-0  55406-4 0  9996
2 19257  74.0481 299.9847 0021258 297.7849 200.8622 14.37299504455976
COSMOS 1975             
1 19573U 88093A   16097.86843667  .00001646  00000-0  11818-3 0  9993
2 19573  82.5218  47.4377 0014472 350.9199   9.1763 15.03596313494233
SL-14 R/B               
1 19574U 88093B   16097.86101108  .00000155  00000-0  15956-4 0  9993
2 19574  82.5347 192.9755 0023148 113.7144  25.6407 14.83140210484772
SL-16 R/B               
1 19650U 88102B   16097.78429737  .00000234  00000-0  14352-3 0  9997
2 19650  71.0002 212.7115 0012745 133.3519 226.8668 14.15737075414227
INTERCOSMOS 24          
1 20261U 89080A   16098.22746190  .00000188  00000-0  49988-4 0  9990
2 20261  82.5915 292.3372 1204988  22.0882 342.7889 12.55753209211245
SL-14 R/B               
1 20262U 89080C   16098.19557655  .00000125  00000-0  31387-4 0  9998
2 20262  82.5949 335.3113 1237751 170.4558 192.2625 12.48799343207293
DELTA 1 R/B             
1 20323U 89089B   16098.20042284  .00000116  00000-0  39372-4 0  9996
2 20323  97.0656 108.2761 0072276  13.7676 346.5470 14.48106886391620
DELTA 2 R/B(1)          
1 20453U 90008B   16097.52938173  .00004357  00000-0  25686-3 0  9991
2 20453  35.6245 272.6465 0295191 140.9613 221.2804 14.81360930383372
COSMOS 2058             
1 20465U 90010A   16098.10689326  .00000579  00000-0  47771-4 0  9997
2 20465  82.4881 307.0170 0014924 328.0061  32.0253 14.97121822420084
SL-14 R/B               
1 20466U 90010B   16097.85166097  .00000143  00000-0  15296-4 0  9998
2 20466  82.5032  60.8401 0019908 335.8357  24.1921 14.81206838412906
SL-14 R/B               
1 20511U 90018B   16097.34064591  .00000157  00000-0  17702-4 0  9996
2 20511  82.5258   0.9045 0019031 104.3309  34.6124 14.79868805407459
HST                     
1 20580U 90037B   16097.56322917  .00001031  00000-0  53588-4 0  9990
2 20580  28.4708  11.6776 0002903 155.8627 212.5904 15.08282572224283
SL-16 R/B               
1 20625U 90046B   16098.15847552 -.00000070  00000-0 -11411-4 0  9996
2 20625  71.0017 344.2572 0012659  42.3365 120.6275 14.14599881336179
COSMOS 2084             
1 20663U 90055A   16097.53055655  .00000379  00000-0  51808-4 0  9998
2 20663  62.7929 245.0067 0117386  46.2324 314.8410 14.91120413394682
SL-6 R/B(2)             
1 20666U 90055D   16098.43641252  .00000310  00000-0  44405-4 0  9995
2 20666  62.7837 162.0369 0129740  66.2177 295.2458 14.91496644396173
SL-8 R/B                
1 20775U 90078B   16098.19597371  .00002096  00000-0  10717-3 0  9997
2 20775  82.9327  44.8485 0598470 242.6886 111.2170 14.27970223286484
SL-8 R/B                
1 21088U 91006B   16098.17900574  .00000038  00000-0  23019-4 0  9992
2 21088  82.9446 344.3533 0023918 100.0507   9.7906 13.77032721265596
OKEAN-3                 
1 21397U 91039A   16097.49024321  .00000574  00000-0  53865-4 0  9999
2 21397  82.5245 193.1195 0016625 255.7683 104.1691 14.92152046344653
COSMOS 2151             
1 21422U 91042A   16097.65321555  .00000349  00000-0  32288-4 0  9995
2 21422  82.4985 301.7844 0013274 316.5942  43.4231 14.91586485343427
SL-14 R/B               
1 21423U 91042B   16098.15307936  .00000150  00000-0  16952-4 0  9999
2 21423  82.4969   8.8668 0016336 236.0310 123.9351 14.79622788338105
ERS-1                   
1 21574U 91050A   16097.50161284  .00000100  00000-0  47400-4 0  9994
2 21574  98.4077  47.0151 0032983 177.7822 182.3517 14.37474274294851
ARIANE 40 R/B           
1 21610U 91050F   16098.11227713  .00000061  00000-0  33470-4 0  9991
2 21610  98.6644 144.4707 0003847 148.8494 264.1416 14.40713116297321
INTERCOSMOS 25          
1 21819U 91086A   16098.07060831  .00000117  00000-0  23020-4 0  9994
2 21819  82.5560 325.2237 1525819 294.6906  50.2965 12.04150616 59771
SL-14 R/B               
1 21820U 91086B   16097.84336982  .00000324  00000-0  56884-4 0  9997
2 21820  82.5668  15.8364 1578134 106.3306 271.6631 11.93129897 54741
SL-8 R/B                
1 21876U 92008B   16096.96481575  .00000083  00000-0  70201-4 0  9995
2 21876  82.9240  82.1521 0034895 172.3985 239.6053 13.75581417211042
SL-8 R/B                
1 21938U 92020B   16097.81616988  .00000119  00000-0  10871-3 0  9997
2 21938  82.9300 324.4330 0028608 332.1864  77.7680 13.75236065203319
SL-16 R/B               
1 22220U 92076B   16097.52674285 -.00000256  00000-0 -10460-3 0  9993
2 22220  70.9992 258.3753 0014468 225.3885 198.0420 14.16394337208943
SL-16 R/B               
1 22285U 92093B   16097.42663556 -.00000291  00000-0 -12592-3 0  9998
2 22285  71.0222  48.4837 0002048  54.6504 305.4810 14.14990434200751
COSMOS 2228             
1 22286U 92094A   16098.02826526  .00000463  00000-0  48244-4 0  9998
2 22286  82.5209  65.2395 0021953 126.3507 233.9741 14.87401206257659
SL-16 R/B               
1 22566U 93016B   16098.01483442 -.00000227  00000-0 -92896-4 0  9991
2 22566  71.0060 262.4562 0008143  74.5277 285.6744 14.14921832189573
COSMOS 2242             
1 22626U 93024A   16097.50959992  .00000432  00000-0  44795-4 0  9999
2 22626  82.5196  93.4114 0020478 127.2054 233.1036 14.87406165241237
SL-16 R/B               
1 22803U 93059B   16098.17018370 -.00000087  00000-0 -19578-4 0  9993
2 22803  70.9884  88.2022 0018495 323.3936  36.5922 14.16737966166528
ARIANE 40 R/B           
1 22830U 93061H   16097.55240274 -.00000013  00000-0  12414-4 0  9997
2 22830  98.8856  96.8390 0011880 119.9342 348.1195 14.31403698175781
COSMOS 2278             
1 23087U 94023A   16098.41639726  .00000064  00000-0  58593-4 0  9994
2 23087  71.0552 189.7285 0008270 174.4898 185.6317 14.13718968132904
SL-16 R/B               
1 23088U 94023B   16098.41644218 -.00000178  00000-0 -67926-4 0  9995
2 23088  70.9984 116.6683 0002576 353.2108   6.8979 14.14642545133915
SL-16 R/B               
1 23343U 94074B   16097.14820897  .00000050  00000-0  14758-4 0  9995
2 23343  98.2001 122.5561 0007737  42.4354   3.5640 14.76646557152338
SL-16 R/B               
1 23405U 94077B   16098.16328401 -.00000230  00000-0 -93683-4 0  9990
2 23405  70.9842  52.1248 0005132 267.4283  92.6252 14.15181443103823
ERS-2                   
1 23560U 95021A   16097.84248990  .00003643  00000-0  18017-3 0  9996
2 23560  98.5111  27.6434 0003919   8.2912 351.8383 15.18607140109119
ARIANE 40+ R/B          
1 23561U 95021B   16097.85946815  .00000091  00000-0  45446-4 0  9990
2 23561  98.7661  83.6512 0008084 107.1386 311.4539 14.37725064 98559
SL-16 R/B               
1 23705U 95058B   16097.81142402  .00000229  00000-0  14255-3 0  9992
2 23705  71.0225 224.5558 0014480 246.6634 113.2966 14.15084631 55455
SL-16 R/B               
1 24298U 96051B   16097.47746810 -.00000034  00000-0  78117-5 0  9993
2 24298  70.8320 262.6377 0013946 122.2844 237.9629 14.12392647 10150
ORBVIEW 2 (SEASTAR)     
1 24883U 97037A   16098.31496419  .00000120  00000-0  59415-4 0  9993
2 24883  98.5143 207.3954 0001605 345.5161  14.5977 14.33303305989468
SL-16 R/B               
1 25400U 98043G   16097.87599131  .00000005  00000-0  19738-4 0  9998
2 25400  98.4306  55.5287 0010743 128.6484 231.5659 14.25376405922914
SL-16 R/B               
1 25407U 98045B   16097.78651308  .00000248  00000-0  15070-3 0  9995
2 25407  71.0111 238.4946 0007184 167.5342 192.5960 14.15742314914418
ISS (ZARYA)             
1 25544U 98067A   16098.55391263  .00005400  00000-0  80645-4 0  9994
2 25544  51.6415  50.3320 0002365  37.3730 322.7945 15.54387958993992
SL-8 R/B                
1 25723U 99022C   16097.82128064  .00007892  00000-0  15898-3 0  9995
2 25723  48.4189 322.6923 0011527 102.0994 314.7613 15.47366803938764
CZ-4B R/B               
1 25732U 99025C   16097.99503347 -.00000018  00000-0  13606-4 0  9997
2 25732  98.9695  88.9719 0036372 252.5944 170.0985 14.17604458874831
OKEAN-O                 
1 25860U 99039A   16098.02589851  .00000214  00000-0  38390-4 0  9997
2 25860  98.1371  72.3253 0001932  92.1347 268.0083 14.76328172899470
SL-16 R/B               
1 25861U 99039B   16097.48733905  .00000107  00000-0  22032-4 0  9995
2 25861  98.0460  61.5622 0016795  51.7376  59.4927 14.78297801901250
TERRA                   
1 25994U 99068A   16098.22201335  .00000150  00000-0  43339-4 0  9995
2 25994  98.2148 173.5027 0001130  74.7186 285.4189 14.57111802867183
SL-14 R/B               
1 26874U 01032B   16097.53444789  .00023637  00000-0  14084-3 0  9991
2 26874  82.4650   0.1660 0009707 108.6438 251.5883 15.77699149824330
ENVISAT                 
1 27386U 02009A   16098.42258988 -.00000016  00000-0  86905-5 0  9998
2 27386  98.2915 154.3461 0001291  84.5581 275.5755 14.37861191738454
IDEFIX & ARIANE 42P R/B 
1 27422U 02021B   16097.52504572  .00000004  00000-0  17496-4 0  9990
2 27422  98.2346 115.9920 0013673  91.6179 268.6570 14.29237248724303
AQUA                    
1 27424U 02022A   16097.55534723  .00000223  00000-0  59661-4 0  9990
2 27424  98.2108  39.2218 0001565  68.2678 291.8103 14.57096634740693
CZ-4B R/B               
1 27432U 02024C   16098.00664560 -.00000001  00000-0  22633-4 0  9999
2 27432  98.9291  64.5815 0050332 186.3457 215.2923 14.14010858717151
MIDORI II (ADEOS-II)    
1 27597U 02056A   16097.85752425  .00000082  00000-0  50569-4 0  9993
2 27597  98.3166  81.4112 0001670 124.0521 236.0820 14.27198684693189
H-2A R/B                
1 27601U 02056E   16098.46181516  .00000080  00000-0  44519-4 0  9990
2 27601  98.4226 174.0754 0073038 145.7893 283.0219 14.31702281695469
CZ-4B R/B               
1 28059U 03049C   16098.25216531  .00000047  00000-0  23298-4 0  9998
2 28059  98.6229 327.9558 0051020 134.9440 337.4387 14.52434362660397
CZ-2C R/B               
1 28222U 04012C   16098.47390286  .00001300  00000-0  85738-4 0  9995
2 28222  97.4669  59.1803 0047931 238.9909 234.9614 15.08319101654912
